{"fetched_at":"2026-03-28T16:33:49Z","count":6709,"tles":[{"name":"COSMOS 2533","line1":"1 43867U 18107A   26086.25044479 -.00000057  00000+0  00000+0 0  9993","line2":"2 43867   0.0261 111.3491 0000699 338.2361 255.2460  1.00272816 26615","category":"Other"}]}